ordinal{string},comment{string},originator{string},norad_cat_id{string},object_name{string},object_type{string},classification_type{string},intldes{string},epoch{timestamp},epoch_microseconds{integer},mean_motion{decimal},eccentricity{decimal},inclination{decimal},ra_of_asc_node{decimal},arg_of_pericenter{decimal},mean_anomaly{decimal},ephemeris_type{string},element_set_no{string},rev_at_epoch{integer},bstar{decimal},mean_motion_dot{decimal},mean_motion_ddot{string},file{string},tle_line0{string},tle_line1{string},tle_line2{string},object_id{string},object_number{string},semimajor_axis{decimal},period{decimal},apogee{decimal},perigee{decimal}
1,GENERATED VIA SPACETRACK.ORG API,JSPOC,28220,TANSUO 1,PAYLOAD,U,04012A,2019-02-21T21:22:24Z,765024,14.99727034,0.0012243,97.7796000000000021,15.0495000000000001,224.260400000000004,135.76400000000001,0,999,80854,3.38900000000000025e-05,3.58000000000000003e-06,0,2414182,0 TANSUO 1,1 28220U 04012A   19052.89056441  .00000358  00000-0  33890-4 0  9998,2 28220  97.7796  15.0495 0012243 224.2604 135.7640 14.99727034808544,2004-012A,28220,6945.8760000000002,96.0169999999999959,576.244000000000028,559.236999999999966
1,GENERATED VIA SPACETRACK.ORG API,JSPOC,10457,TRANSAT,PAYLOAD,U,77106A,2019-02-21T21:22:30Z,571968,13.4860111699999994,0.00266989999999999979,89.7497000000000043,157.029300000000006,156.287399999999991,325.924300000000017,0,999,3236,3.19550000000000015e-05,2.99999999999999986e-07,0,2414564,0 TRANSAT,1 10457U 77106A   19052.89063162 +.00000030 +00000-0 +31955-4 0  9990,2 10457 089.7497 157.0293 0026699 156.2874 325.9243 13.48601117032369,1977-106A,10457,7455.54600000000028,106.777000000000001,1097.31700000000001,1057.50600000000009
1,GENERATED VIA SPACETRACK.ORG API,JSPOC,14057,COSMOS 1459,PAYLOAD,U,83042A,2019-02-21T21:22:47Z,583264,13.7654843600000003,0.00507859999999999995,82.9762000000000057,356.499300000000005,100.464500000000001,260.224100000000021,0,999,79805,2.49279999999999992e-05,4.09999999999999992e-07,0,2414564,0 COSMOS 1459,1 14057U 83042A   19052.89082851 +.00000041 +00000-0 +24928-4 0  9996,2 14057 082.9762 356.4993 0050786 100.4645 260.2241 13.76548436798051,1983-042A,14057,7354.29100000000017,104.608999999999995,1013.50599999999997,938.807000000000016
1,GENERATED VIA SPACETRACK.ORG API,JSPOC,8286,COSMOS 762,PAYLOAD,U,75086B,2019-02-21T21:23:22Z,850880,12.5086186900000005,0.00291449999999999999,74.0075999999999965,215.108200000000011,39.9485000000000028,112.0274,0,999,98321,-9.36010000000000005e-05,-2.99999999999999986e-07,0,2414564,0 COSMOS 762,1  8286U 75086B   19052.89123670 -.00000030 +00000-0 -93601-4 0  9991,2  8286 074.0076 215.1082 0029145 039.9485 112.0274 12.50861869983214,1975-086B,8286,7839.02900000000045,115.120000000000005,1483.74000000000001,1438.04700000000003
1,GENERATED VIA SPACETRACK.ORG API,JSPOC,16764,COSMOS 1754,PAYLOAD,U,86042G,2019-02-21T21:23:34Z,120032,12.5256534199999994,0.00198219999999999993,74.0167000000000002,198.336399999999998,84.4883999999999986,74.1681999999999988,0,999,32078,-3.70679999999999981e-05,-2.20000000000000011e-07,0,2414158,0 COSMOS 1754,1 16764U 86042G   19052.89136713 -.00000022  00000-0 -37068-4 0  9993,2 16764  74.0167 198.3364 0019822  84.4884  74.1682 12.52565342320786,1986-042G,16764,7831.92000000000007,114.963999999999999,1469.30899999999997,1438.25999999999999
1,GENERATED VIA SPACETRACK.ORG API,JSPOC,38042,GLOBALSTAR M082,PAYLOAD,U,11080C,2019-02-21T21:23:36Z,165120,12.6226472199999993,0.000118300000000000002,52.0060000000000002,188.755599999999987,113.941999999999993,29.4391999999999996,0,999,33222,-6.03329999999999999e-05,-1.15e-06,0,2414564,0 GLOBALSTAR M082,1 38042U 11080C   19052.89139080 -.00000115 +00000-0 -60333-4 0  9990,2 38042 052.0060 188.7556 0001183 113.9420 029.4392 12.62264722332220,2011-080C,38042,7791.7470000000003,114.079999999999998,1414.53400000000011,1412.69000000000005
1,GENERATED VIA SPACETRACK.ORG API,JSPOC,13164,COSMOS 1361,PAYLOAD,U,82040E,2019-02-21T21:23:48Z,363072,12.4816743700000004,0.00147389999999999999,74.0146000000000015,328.484100000000012,213.297599999999989,211.2089,0,999,67687,0.000135759999999999988,4.00000000000000008e-08,0,2414157,0 COSMOS 1361,1 13164U 82040E   19052.89153198  .00000004  00000-0  13576-3 0  9999,2 13164  74.0146 328.4841 0014739 213.2976 211.2089 12.48167437676873,1982-040E,13164,7850.30599999999959,115.369,1483.74099999999999,1460.59999999999991
1,GENERATED VIA SPACETRACK.ORG API,JSPOC,32264,GLOBALSTAR M070,PAYLOAD,U,07048B,2019-02-21T21:23:53Z,835648,12.6226490099999999,0.000143200000000000011,51.9765999999999977,316.930000000000007,98.0823000000000036,338.063699999999983,0,999,52247,5.76270000000000024e-05,-9.2999999999999999e-07,0,2414564,0 GLOBALSTAR M070,1 32264U 07048B   19052.89159532 -.00000093 +00000-0 +57627-4 0  9999,2 32264 051.9766 316.9300 0001432 098.0823 338.0637 12.62264901522478,2007-048B,32264,7791.74600000000009,114.079999999999998,1414.72700000000009,1412.49600000000009
1,GENERATED VIA SPACETRACK.ORG API,JSPOC,2717,INTELSAT 2-F3,PAYLOAD,U,67026A,2019-02-21T21:24:14Z,105088,1.0016093800000001,0.00213549999999999981,2.53849999999999998,303.572400000000016,310.704999999999984,316.105000000000018,0,999,9710,0,-2.95000000000000013e-06,0,2414564,0 INTELSAT 2-F3,1  2717U 67026A   19052.89182992 -.00000295 +00000-0 +00000-0 0  9990,2  2717 002.5385 303.5724 0021355 310.7050 316.1050 01.00160938097109,1967-026A,2717,42195.8349999999991,1437.68599999999992,35907.8090000000011,35727.5899999999965
1,GENERATED VIA SPACETRACK.ORG API,JSPOC,32404,THURAYA 3,PAYLOAD,U,08001A,2019-02-21T21:24:21Z,641760,1.00272138000000011,0.000498900000000000038,3.82670000000000021,1.77600000000000002,330.266999999999996,239.034199999999998,0,999,4072,0,-3.22000000000000009e-06,0,2414564,0 THURAYA 3,1 32404U 08001A   19052.89191715 -.00000322 +00000-0 +00000-0 0  9998,2 32404 003.8267 001.7760 0004989 330.2670 239.0342 01.00272138040723,2008-001A,32404,42164.6330000000016,1436.09099999999989,35807.5330000000031,35765.4619999999995
1,GENERATED VIA SPACETRACK.ORG API,JSPOC,5214,COSMOS 415,PAYLOAD,U,71041E,2019-02-21T21:24:27Z,162720,12.4745349300000008,0.0031936,74.0164000000000044,24.4612000000000016,345.894200000000012,14.1212999999999997,0,999,17643,-6.08199999999999971e-05,-2.49999999999999989e-07,0,2414564,0 COSMOS 415,1  5214U 71041E   19052.89198105 -.00000025 +00000-0 -60820-4 0  9992,2  5214 074.0164 024.4612 0031936 345.8942 014.1213 12.47453493176437,1971-041E,5214,7853.30100000000039,115.435000000000002,1500.24600000000009,1450.08600000000001
1,GENERATED VIA SPACETRACK.ORG API,JSPOC,12637,COSMOS 1288,PAYLOAD,U,81074B,2019-02-21T21:24:36Z,549216,12.4667004800000001,0.00183890000000000008,74.0335000000000036,36.9973000000000027,304.723099999999988,68.5571000000000055,0,999,70860,-7.65479999999999996e-05,-2.70000000000000009e-07,0,2414564,0 COSMOS 1288,1 12637U 81074B   19052.89208969 -.00000027 +00000-0 -76548-4 0  9992,2 12637 074.0335 036.9973 0018389 304.7231 068.5571 12.46670048708600,1981-074B,12637,7856.59100000000035,115.507000000000005,1492.90300000000002,1464.00800000000004
1,GENERATED VIA SPACETRACK.ORG API,JSPOC,25416,ORBCOMM FM 20,PAYLOAD,U,98046D,2019-02-21T21:24:44Z,892864,14.3279763399999993,9.34999999999999959e-05,44.9945999999999984,249.751900000000006,94.9552000000000049,265.140100000000018,0,999,7312,6.54680000000000041e-05,3.99999999999999982e-07,0,2414564,0 ORBCOMM FM 20,1 25416U 98046D   19052.89218626 +.00000040 +00000-0 +65468-4 0  9991,2 25416 044.9946 249.7519 0000935 094.9552 265.1401 14.32797634073122,1998-046D,25416,7160.53099999999995,100.501999999999995,783.066000000000031,781.726999999999975
1,GENERATED VIA SPACETRACK.ORG API,JSPOC,26611,STRV 1D,PAYLOAD,U,00072D,2019-02-21T21:24:44Z,254368,2.03358326999999983,0.733595899999999967,6.04640000000000022,183.16749999999999,225.514600000000002,111.568700000000007,0,999,3612,0.00338390000000000002,-2.60000000000000009e-06,0,2414564,0 STRV 1D,1 26611U 00072D   19052.89217887 -.00000260 +00000-0 +33839-2 0  9999,2 26611 006.0464 183.1675 7335959 225.5146 111.5687 02.03358327036129,2000-072D,26611,26316.4429999999993,708.109000000000037,39243.9440000000031,632.673000000000002
1,GENERATED VIA SPACETRACK.ORG API,JSPOC,39431,BRITE-PL,PAYLOAD,U,13066R,2019-02-21T21:24:45Z,320544,14.4698590399999993,0.0202850000000000009,97.7874999999999943,349.131599999999992,15.1135999999999999,345.599899999999991,0,999,27714,3.34369999999999985e-05,1.08999999999999994e-06,0,2414564,0 BRITE-PL,1 39431U 13066R   19052.89219121 +.00000109 +00000-0 +33437-4 0  9990,2 39431 097.7875 349.1316 0202850 015.1136 345.5999 14.46985904277141,2013-066R,39431,7113.64599999999973,99.5169999999999959,879.812000000000012,591.211000000000013
1,GENERATED VIA SPACETRACK.ORG API,JSPOC,28629,EXPRESS AM-2,PAYLOAD,U,05010A,2019-02-21T21:24:51Z,791040,0.990380869999999969,0.00187119999999999995,3.62760000000000016,74.8872000000000071,27.5368999999999993,110.067400000000006,0,999,1409,0,-1.01999999999999998e-06,0,2414564,0 EXPRESS AM-2,1 28629U 05010A   19052.89226610 -.00000102 +00000-0 +00000-0 0  9998,2 28629 003.6276 074.8872 0018712 027.5369 110.0674 00.99038087014097,2005-010A,28629,42514.1670000000013,1453.9860000000001,36215.5849999999991,36056.4789999999994
1,GENERATED VIA SPACETRACK.ORG API,JSPOC,31576,GLOBALSTAR M071,PAYLOAD,U,07020F,2019-02-21T21:24:53Z,742816,12.6226393600000009,0.000114599999999999994,52.0086999999999975,10.4681999999999995,67.6773000000000025,310.761099999999999,0,999,20456,3.62889999999999976e-05,-9.7000000000000003e-07,0,2414564,0 GLOBALSTAR M071,1 31576U 07020F   19052.89228869 -.00000097 +00000-0 +36289-4 0  9999,2 31576 052.0087 010.4682 0001146 067.6773 310.7611 12.62263936204561,2007-020F,31576,7791.75,114.079999999999998,1414.50800000000004,1412.72199999999998
